*******************************************************************************
Ephemeris / PORT_LOGIN Fri May  8 03:11:00 2020 Pasadena, USA    / Horizons    
*******************************************************************************
Target body name: Earth (399)                     {source: DE431mx}
Center body name: Sun (10)                        {source: DE431mx}
Center-site name: BODY CENTER
*******************************************************************************
Start time      : A.D. 2008-May-08 00:00:00.0000 TDB
Stop  time      : A.D. 2020-May-08 00:00:00.0000 TDB
Step-size       : 14400 minutes
*******************************************************************************
Center geodetic : 0.00000000,0.00000000,0.0000000 {E-lon(deg),Lat(deg),Alt(km)}
Center cylindric: 0.00000000,0.00000000,0.0000000 {E-lon(deg),Dxy(km),Dz(km)}
Center radii    : 696000.0 x 696000.0 x 696000.0 k{Equator, meridian, pole}    
Output units    : AU-D                                                         
Output type     : GEOMETRIC cartesian states
Output format   : 3 (position, velocity, LT, range, range-rate)
Reference frame : ICRF/J2000.0                                                 
Coordinate systm: Ecliptic and Mean Equinox of Reference Epoch                 
*******************************************************************************
JDTDB
   X     Y     Z
   VX    VY    VZ
   LT    RG    RR
*******************************************************************************
$$SOE
2457114.500000000 = A.D. 2015-Apr-02 00:00:00.0000 TDB 
 X =-9.784647206925833E-01 Y =-2.030868748652462E-01 Z = 1.106553893623488E-05
 VX= 3.217883434216610E-03 VY=-1.690371045874701E-02 VZ=-1.534562987838928E-08
 LT= 5.771582385228916E-03 RG= 9.993185120395767E-01 RR= 2.845302187605155E-04
2457124.500000000 = A.D. 2015-Apr-12 00:00:00.0000 TDB 
 X =-9.320752400360323E-01 Y =-3.683263876537671E-01 Z = 1.235087446388039E-05
 VX= 6.036562219130708E-03 VY=-1.606778488778610E-02 VZ= 6.657490105639260E-07
 LT= 5.788292879393839E-03 RG= 1.002211844413567E+00 RR= 2.910153135543790E-04
2457134.500000000 = A.D. 2015-Apr-22 00:00:00.0000 TDB 
 X =-8.583071443690998E-01 Y =-5.228662139919593E-01 Z = 2.259623282596719E-05
 VX= 8.677175856915997E-03 VY=-1.476019821394247E-02 VZ= 7.938145114062486E-07
 LT= 5.804554625042078E-03 RG= 1.005027478390474E+00 RR= 2.685766814320470E-04
2457144.500000000 = A.D. 2015-May-02 00:00:00.0000 TDB 
 X =-7.595364824447092E-01 Y =-6.621097171941716E-01 Z = 2.403359126207174E-05
 VX= 1.102283346457730E-02 VY=-1.302701277773173E-02 VZ=-2.200804768065753E-07
 LT= 5.819490185693904E-03 RG= 1.007613490553318E+00 RR= 2.511554152194296E-04
2457154.500000000 = A.D. 2015-May-12 00:00:00.0000 TDB 
 X =-6.389404659225624E-01 Y =-7.822844746928700E-01 Z = 2.625043039327020E-05
 VX= 1.304137030369697E-02 VY=-1.095383427610350E-02 VZ= 8.416925439793750E-07
 LT= 5.833599219239637E-03 RG= 1.010056393983982E+00 RR= 2.340020794325161E-04
2457164.500000000 = A.D. 2015-May-22 00:00:00.0000 TDB 
 X =-4.999428937239767E-01 Y =-8.801018941217105E-01 Z = 3.364501756208133E-05
 VX= 1.468608107950230E-02 VY=-8.560850956216120E-03 VZ= 1.662383545209771E-07
 LT= 5.845903772179019E-03 RG= 1.012186861282892E+00 RR= 1.899049300616340E-04
2457174.500000000 = A.D. 2015-Jun-01 00:00:00.0000 TDB 
 X =-3.467312846513817E-01 Y =-9.527641084522263E-01 Z = 3.091961656803124E-05
 VX= 1.588158900010917E-02 VY=-5.944082486686773E-03 VZ=-2.979708149050815E-07
 LT= 5.855766196659576E-03 RG= 1.013894487146856E+00 RR= 1.545177407061647E-04
2457184.500000000 = A.D. 2015-Jun-11 00:00:00.0000 TDB 
 X =-1.837551981575975E-01 Y =-9.985222760456253E-01 Z = 3.382456313472121E-05
 VX= 1.664146118664572E-02 VY=-3.185257893470668E-03 VZ= 7.105039765235541E-07
 LT= 5.863822950991701E-03 RG= 1.015289470916238E+00 RR= 1.207497872684766E-04
2457194.500000000 = A.D. 2015-Jun-21 00:00:00.0000 TDB 
 X =-1.548768970034478E-02 Y =-1.016099157939224E+00 Z = 3.587028178435957E-05
 VX= 1.692712279267070E-02 VY=-3.220032554008936E-04 VZ=-4.580310015932787E-07
 LT= 5.869180984935420E-03 RG= 1.016217185735280E+00 RR= 6.398749776827461E-05
2457204.500000000 = A.D. 2015-Jul-01 00:00:00.0000 TDB 
 X = 1.531406184113858E-01 Y =-1.005020345005274E+00 Z = 3.032890974933955E-05
 VX= 1.672101852009030E-02 VY= 2.527294158401189E-03 VZ=-2.200071682550682E-07
 LT= 5.871512330148873E-03 RG= 1.016620845645900E+00 RR= 2.034688059437461E-05
2457214.500000000 = A.D. 2015-Jul-11 00:00:00.0000 TDB 
 X = 3.174647666192063E-01 Y =-9.658042032717884E-01 Z = 3.295320812080023E-05
 VX= 1.606926150312558E-02 VY= 5.303115919700336E-03 VZ= 2.656622084733748E-07
 LT= 5.871636444789150E-03 RG= 1.016642335429700E+00 RR=-2.001420104971281E-05
2457224.500000000 = A.D. 2015-Jul-21 00:00:00.0000 TDB 
 X = 4.729447709382962E-01 Y =-8.993788674602349E-01 Z = 2.893943193023485E-05
 VX= 1.494862501204754E-02 VY= 7.949282618133406E-03 VZ=-9.075934452256216E-07
 LT= 5.868788069966335E-03 RG= 1.016149154617285E+00 RR=-7.827865816415673E-05
2457234.500000000 = A.D. 2015-Jul-31 00:00:00.0000 TDB 
 X = 6.150128465806870E-01 Y =-8.076332371529128E-01 Z = 2.259301739944603E-05
 VX= 1.340147874462380E-02 VY= 1.035452615030151E-02 VZ=-4.616188209282020E-08
 LT= 5.862968293043833E-03 RG= 1.015141491479792E+00 RR=-1.187793868005553E-04
2457244.500000000 = A.D. 2015-Aug-10 00:00:00.0000 TDB 
 X = 7.397814134762442E-01 Y =-6.931818718448639E-01 Z = 2.339297582589983E-05
 VX= 1.149035060124638E-02 VY= 1.248910899220584E-02 VZ=-3.429091558168192E-07
 LT= 5.855184046138952E-03 RG= 1.013793690908801E+00 RR=-1.547416887603102E-04
2457254.500000000 = A.D. 2015-Aug-20 00:00:00.0000 TDB 
 X = 8.436053151204077E-01 Y =-5.589895820086076E-01 Z = 1.439462431763380E-05
 VX= 9.220466949850204E-03 VY= 1.428315729666372E-02 VZ=-1.090010385565818E-06
 LT= 5.844811084798310E-03 RG= 1.011997668327732E+00 RR=-2.032625393986939E-04
2457264.500000000 = A.D. 2015-Aug-30 00:00:00.0000 TDB 
 X = 9.233045429844591E-01 Y =-4.089247732929768E-01 Z = 9.075413749834910E-06
 VX= 6.684298917877834E-03 VY= 1.565918618092838E-02 VZ= 8.052237062070207E-08
 LT= 5.832160475875103E-03 RG= 1.009807283292617E+00 RR=-2.295344909371251E-04
2457274.500000000 = A.D. 2015-Sep-09 00:00:00.0000 TDB 
 X = 9.766301454660204E-01 Y =-2.471760212309777E-01 Z = 6.751801241636579E-06
 VX= 3.946987453464718E-03 VY= 1.661744076750307E-02 VZ=-8.773506008143626E-07
 LT= 5.818393803878198E-03 RG= 1.007423657926567E+00 RR=-2.508239359464812E-04
2457284.500000000 = A.D. 2015-Sep-19 00:00:00.0000 TDB 
 X = 1.001712712950120E+00 Y =-7.820234138621411E-02 Z =-4.511179283288058E-06
 VX= 1.053439480492614E-03 VY= 1.709135334703453E-02 VZ=-9.342803139414774E-07
 LT= 5.803013557713764E-03 RG= 1.004760650853987E+00 RR=-2.800071089670536E-04
2457294.500000000 = A.D. 2015-Sep-29 00:00:00.0000 TDB 
 X = 9.975943220239980E-01 Y = 9.294967781822261E-02 Z =-7.297087217480977E-06
 VX=-1.874062193048468E-03 VY= 1.705865082732192E-02 VZ= 8.415703598903235E-08
 LT= 5.786579621448133E-03 RG= 1.001915202995882E+00 RR=-2.834149080250383E-04
2457304.500000000 = A.D. 2015-Oct-09 00:00:00.0000 TDB 
 X = 9.642995002055682E-01 Y = 2.613960755468929E-01 Z =-1.249128839440150E-05
 VX=-4.778325489918532E-03 VY= 1.654674336006782E-02 VZ=-1.112972189245771E-06
 LT= 5.770322170153695E-03 RG= 9.991003125632870E-01 RR=-2.827374657880329E-04
2457314.500000000 = A.D. 2015-Oct-19 00:00:00.0000 TDB 
 X = 9.023771264352304E-01 Y = 4.221508963398651E-01 Z =-2.232089244295264E-05
 VX=-7.576974161731388E-03 VY= 1.551874814016132E-02 VZ=-4.647503936625252E-07
 LT= 5.753807369627542E-03 RG= 9.962408634924976E-01 RR=-2.871140241317307E-04
2457324.500000000 = A.D. 2015-Oct-29 00:00:00.0000 TDB 
 X = 8.135338102842329E-01 Y = 5.701944604505269E-01 Z =-2.212551577175631E-05
 VX=-1.014864899488228E-02 VY= 1.401965540983722E-02 VZ=-4.198795923260293E-08
 LT= 5.737735430968240E-03 RG= 9.934580935769702E-01 RR=-2.640667328561651E-04
2457334.500000000 = A.D. 2015-Nov-08 00:00:00.0000 TDB 
 X = 7.002711288564544E-01 Y = 7.011509545836127E-01 Z =-2.872341321814922E-05
 VX=-1.245388705336442E-02 VY= 1.209990718107911E-02 VZ=-9.885654981551842E-07
 LT= 5.723280236329587E-03 RG= 9.909552542110257E-01 RR=-2.394013712732784E-04
2457344.500000000 = A.D. 2015-Nov-18 00:00:00.0000 TDB 
 X = 5.656715335806514E-01 Y = 8.108299064783384E-01 Z =-3.394454651225529E-05
 VX=-1.439528137778898E-02 VY= 9.775069923432769E-03 VZ= 1.508732611279481E-07
 LT= 5.709967950324173E-03 RG= 9.886503033405641E-01 RR=-2.195739644751012E-04
2457354.500000000 = A.D. 2015-Nov-28 00:00:00.0000 TDB 
 X = 4.138719666617255E-01 Y = 8.956656631659923E-01 Z =-3.151816187996395E-05
 VX=-1.589054674986942E-02 VY= 7.151937149726882E-03 VZ=-1.931173796229586E-07
 LT= 5.698499346905999E-03 RG= 9.866645762144376E-01 RR=-1.732172235633958E-04
2457364.500000000 = A.D. 2015-Dec-08 00:00:00.0000 TDB 
 X = 2.493658986818412E-01 Y = 9.530844786069580E-01 Z =-3.728962830565285E-05
 VX=-1.692860286669500E-02 VY= 4.295424171530681E-03 VZ=-5.383341105384634E-07
 LT= 5.689848187016955E-03 RG= 9.851666743132431E-01 RR=-1.294340781238452E-04
2457374.500000000 = A.D. 2015-Dec-18 00:00:00.0000 TDB 
 X = 7.708604827741186E-02 Y = 9.810215352106069E-01 Z =-3.613423915451814E-05
 VX=-1.743314256012750E-02 VY= 1.276563135272723E-03 VZ= 6.770785170294408E-07
 LT= 5.683372726266055E-03 RG= 9.840454830401318E-01 RR=-9.299993577681446E-05
2457384.500000000 = A.D. 2015-Dec-28 00:00:00.0000 TDB 
 X =-9.747552782330950E-02 Y = 9.785565298740074E-01 Z =-3.278699179464331E-05
 VX=-1.739389553100263E-02 VY=-1.766161905809130E-03 VZ=-2.498823413511051E-07
 LT= 5.679641208491650E-03 RG= 9.833993907657655E-01 RR=-3.336397202546606E-05
